OBJECT_NAME,OBJECT_ID,EPOCH,MEAN_MOTION,ECCENTRICITY,INCLINATION,RA_OF_ASC_NODE,ARG_OF_PERICENTER,MEAN_ANOMALY,EPHEMERIS_TYPE,CLASSIFICATION_TYPE,NORAD_CAT_ID,ELEMENT_SET_NO,REV_AT_EPOCH,BSTAR,MEAN_MOTION_DOT,MEAN_MOTION_DDOT
GAOFEN-11 01,2018-063A,2026-07-13T06:55:56.269344,15.56028595,.00029287,97.1286,261.1052,208.1867,151.9230,0,U,43585,999,44440,.13579177E-3,.9355E-4,0
ICESAT-2,2018-070A,2026-07-13T06:44:57.195456,15.28330279,.00055711,92.0094,298.0302,69.8953,290.2895,0,U,43613,999,43644,.20513298E-3,.5661E-4,0
HYSIS,2018-096A,2026-07-13T07:58:31.374912,14.78665997,.00018293,97.9836,260.8735,84.6622,275.4798,0,U,43719,999,41128,.1426594E-4,.53E-6,0
KAZSTSAT,2018-099AB,2026-07-13T07:34:16.231296,14.99953170,.00074587,97.4319,225.0657,348.5127,11.5926,0,U,43783,999,41522,.58934387E-4,.676E-5,0
SAUDISAT 5A,2018-102A,2026-07-13T06:59:14.186688,15.28308810,.00105948,97.3057,255.3709,49.8307,310.3859,0,U,43831,999,41966,.11509968E-3,.3104E-4,0
SAUDISAT 5B,2018-102C,2026-07-13T07:20:13.308576,15.28552662,.0011363,97.3166,258.5022,51.2072,309.0181,0,U,43833,999,41978,.10848824E-3,.2944E-4,0
GAOFEN-10R,2019-066A,2026-07-13T06:21:10.957824,14.83054751,.00069492,98.0514,148.0353,58.0880,302.1008,0,U,44622,999,36624,.78179109E-4,.581E-5,0
CARTOSAT-3,2019-081A,2026-07-13T07:19:11.035776,15.19317863,.00132247,97.4299,255.7501,67.0917,293.1712,0,U,44804,999,36743,.16374183E-3,.3397E-4,0
GAOFEN-12 01,2019-082A,2026-07-13T07:17:14.500320,14.80478757,.00010613,97.8108,199.9945,53.8836,306.2474,0,U,44819,999,35795,.31493409E-4,.19E-5,0
CSG-1,2019-092A,2026-07-13T07:30:40.425696,14.82155887,.00014858,97.8893,17.5379,89.9731,270.1652,0,U,44873,999,35534,.30443807E-4,.19E-5,0
NEMO-HD,2020-061F,2026-07-13T07:09:26.418816,15.45112234,.00009779,97.1911,255.9938,90.8031,269.3330,0,U,46277,999,32601,.14847157E-3,.6938E-4,0
SENTINEL-6A,2020-086A,2026-07-12T22:17:12.577920,12.80930069,.0007812,66.0413,81.5884,269.9474,90.0646,0,U,46984,999,26362,.8170496E-5,-.59E-6,0
CAS500-1,2021-022A,2026-07-13T06:16:08.838624,15.20169609,.00050117,97.3874,88.9831,174.7338,185.3951,0,U,47932,999,29472,.17155562E-3,.3646E-4,0
GAOFEN-12 02,2021-026A,2026-07-13T05:59:52.829664,14.80315178,.00057122,97.9933,192.3254,137.3266,222.8391,0,U,48079,999,28561,.28277134E-4,.163E-5,0
PLEIADES NEO 3,2021-034A,2026-07-13T07:41:45.830976,14.81680857,.00014015,97.8945,268.7113,95.5587,264.5786,0,U,48268,999,28152,.98371922E-4,.722E-5,0
PLEIADES NEO 4,2021-073E,2026-07-12T21:09:39.652416,14.81673277,.00013159,97.8940,268.2748,92.3250,267.8113,0,U,49070,999,26517,.5610748E-5,-.8E-7,0
LANDSAT 9,2021-088A,2026-07-13T05:20:16.696608,14.57094678,.00011463,98.2271,264.0833,89.2906,270.8424,0,U,49260,999,25479,.43302894E-4,.15E-5,0
CSG-2,2022-008A,2026-07-13T06:42:00.827136,14.82150722,.00015665,97.8891,17.4991,85.7140,274.4252,0,U,51444,999,24045,.79467212E-4,.58E-5,0
GAOFEN-12 03,2022-069A,2026-07-13T06:49:24.146400,14.80072970,.00024941,97.8253,81.4936,73.8090,286.3396,0,U,52912,999,21847,.21014757E-4,.109E-5,0
SWOT,2022-173A,2026-07-13T06:48:06.300864,14.00172290,.00002909,77.6108,0.0789,77.9738,282.1446,0,U,54754,999,18280,.5675427E-4,.81E-6,0
GAOFEN-12 04,2023-123A,2026-07-13T07:17:12.952896,14.79773257,.00036075,97.9103,111.9317,54.3196,305.8351,0,U,57654,999,15649,.70027984E-4,.475E-5,0
PARS 1,2024-039Q,2026-07-13T06:27:52.977024,15.46262268,.00099921,97.4832,176.0228,33.1437,327.0437,0,U,59065,999,13267,.14557222E-3,.7082E-4,0
RESURS-P 4,2024-061A,2026-07-13T07:42:10.672704,15.32273318,.00032223,97.2758,141.7682,92.2517,267.9094,0,U,59371,999,12776,.58563393E-4,.1749E-4,0
LEGION 1,2024-081A,2026-07-13T06:51:50.444928,15.16836586,.00076852,97.5014,271.8660,277.4200,82.6160,0,U,59625,999,12149,.11137105E-3,.2124E-4,0
LEGION 2,2024-081B,2026-07-13T06:00:33.592320,15.16815113,.00101072,97.5015,271.9276,240.9656,119.0565,0,U,59626,999,12149,.10471411E-3,.1992E-4,0
ALOS-4 (DAICHI-4),2024-123A,2026-07-12T17:22:11.205120,14.79477361,.00015918,97.9221,290.5332,97.7402,262.3991,0,U,60182,999,10965,.10386604E-3,.724E-5,0
LEGION 3,2024-146A,2026-07-13T05:27:30.633696,15.15649032,.00083696,45.0010,250.9361,323.1718,36.8585,0,U,60452,999,10597,.11860787E-3,.2031E-4,0
LEGION 4,2024-146B,2026-07-13T07:02:06.338688,15.15672751,.00089212,45.0030,342.4507,101.7251,258.4629,0,U,60453,999,10483,.13439608E-3,.2338E-4,0
SENTINEL-2C,2024-157A,2026-07-13T04:28:37.162272,14.30815320,.00009444,98.5685,268.5997,101.9124,258.2165,0,U,60989,999,9670,.31702361E-4,.39E-6,0
IONOSFERA-M 1,2024-199A,2026-07-13T06:49:55.337664,14.22758845,.00021875,98.7138,67.1772,75.4065,284.7356,0,U,61735,999,13141,.30042409E-4,.23E-6,0
