GAOFEN-11 01            
1 43585U 18063A   26194.28884571  .00009355  00000+0  13579-3 0  9997
2 43585  97.1286 261.1052 0002928 208.1867 151.9230 15.56028595444403
ICESAT-2                
1 43613U 18070A   26194.28121754  .00005661  00000+0  20513-3 0  9996
2 43613  92.0094 298.0302 0005571  69.8953 290.2895 15.28330279436441
HYSIS                   
1 43719U 18096A   26194.33230758  .00000053  00000+0  14266-4 0  9991
2 43719  97.9836 260.8735 0001829  84.6622 275.4798 14.78665997411287
KAZSTSAT                
1 43783U 18099AB  26194.31546564  .00000676  00000+0  58934-4 0  9999
2 43783  97.4319 225.0657 0007458 348.5127  11.5926 14.99953170415227
SAUDISAT 5A             
1 43831U 18102A   26194.29113642  .00003104  00000+0  11510-3 0  9999
2 43831  97.3057 255.3709 0010594  49.8307 310.3859 15.28308810419664
SAUDISAT 5B             
1 43833U 18102C   26194.30570959  .00002944  00000+0  10849-3 0  9996
2 43833  97.3166 258.5022 0011363  51.2072 309.0181 15.28552662419783
GAOFEN-10R              
1 44622U 19066A   26194.26471016  .00000581  00000+0  78179-4 0  9998
2 44622  98.0514 148.0353 0006949  58.0880 302.1008 14.83054751366241
CARTOSAT-3              
1 44804U 19081A   26194.30498884  .00003397  00000+0  16374-3 0  9990
2 44804  97.4299 255.7501 0013224  67.0917 293.1712 15.19317863367431
GAOFEN-12 01            
1 44819U 19082A   26194.30364005  .00000190  00000+0  31493-4 0  9992
2 44819  97.8108 199.9945 0001061  53.8836 306.2474 14.80478757357954
CSG-1                   
1 44873U 19092A   26194.31296789  .00000190  00000+0  30444-4 0  9992
2 44873  97.8893  17.5379 0001485  89.9731 270.1652 14.82155887355341
NEMO-HD                 
1 46277U 20061F   26194.29822244  .00006938  00000+0  14847-3 0  9992
2 46277  97.1911 255.9938 0000977  90.8031 269.3330 15.45112234326017
SENTINEL-6A             
1 46984U 20086A   26193.92861780 -.00000059  00000+0  81705-5 0  9999
2 46984  66.0413  81.5884 0007812 269.9474  90.0646 12.80930069263628
CAS500-1                
1 47932U 21022A   26194.26121341  .00003646  00000+0  17156-3 0  9995
2 47932  97.3874  88.9831 0005011 174.7338 185.3951 15.20169609294727
GAOFEN-12 02            
1 48079U 21026A   26194.24991701  .00000163  00000+0  28277-4 0  9993
2 48079  97.9933 192.3254 0005712 137.3266 222.8391 14.80315178285616
PLEIADES NEO 3          
1 48268U 21034A   26194.32066934  .00000722  00000+0  98372-4 0  9996
2 48268  97.8945 268.7113 0001401  95.5587 264.5786 14.81680857281529
PLEIADES NEO 4          
1 49070U 21073E   26193.88170894 -.00000008  00000+0  56107-5 0  9991
2 49070  97.8940 268.2748 0001315  92.3250 267.8113 14.81673277265172
LANDSAT 9               
1 49260U 21088A   26194.22241547  .00000150  00000+0  43303-4 0  9991
2 49260  98.2271 264.0833 0001146  89.2906 270.8424 14.57094678254799
CSG-2                   
1 51444U 22008A   26194.27917624  .00000580  00000+0  79467-4 0  9999
2 51444  97.8891  17.4991 0001566  85.7140 274.4252 14.82150722240459
GAOFEN-12 03            
1 52912U 22069A   26194.28430725  .00000109  00000+0  21015-4 0  9993
2 52912  97.8253  81.4936 0002494  73.8090 286.3396 14.80072970218479
SWOT                    
1 54754U 22173A   26194.28340626  .00000081  00000+0  56754-4 0  9992
2 54754  77.6108   0.0789 0000290  77.9738 282.1446 14.00172290182804
GAOFEN-12 04            
1 57654U 23123A   26194.30362214  .00000475  00000+0  70028-4 0  9997
2 57654  97.9103 111.9317 0003607  54.3196 305.8351 14.79773257156497
PARS 1                  
1 59065U 24039Q   26194.26936316  .00007082  00000+0  14557-3 0  9992
2 59065  97.4832 176.0228 0009992  33.1437 327.0437 15.46262268132673
RESURS-P 4              
1 59371U 24061A   26194.32095686  .00001749  00000+0  58563-4 0  9990
2 59371  97.2758 141.7682 0003222  92.2517 267.9094 15.32273318127764
LEGION 1                
1 59625U 24081A   26194.28600052  .00002124  00000+0  11137-3 0  9991
2 59625  97.5014 271.8660 0007685 277.4200  82.6160 15.16836586121492
LEGION 2                
1 59626U 24081B   26194.25038880  .00001992  00000+0  10471-3 0  9995
2 59626  97.5015 271.9276 0010107 240.9656 119.0565 15.16815113121498
ALOS-4 (DAICHI-4)       
1 60182U 24123A   26193.72374080  .00000724  00000+0  10387-3 0  9995
2 60182  97.9221 290.5332 0001591  97.7402 262.3991 14.79477361109650
LEGION 3                
1 60452U 24146A   26194.22743789  .00002031  00000+0  11861-3 0  9993
2 60452  45.0010 250.9361 0008369 323.1718  36.8585 15.15649032105979
LEGION 4                
1 60453U 24146B   26194.29312892  .00002338  00000+0  13440-3 0  9993
2 60453  45.0030 342.4507 0008921 101.7251 258.4629 15.15672751104836
SENTINEL-2C             
1 60989U 24157A   26194.18654123  .00000039  00000+0  31702-4 0  9991
2 60989  98.5685 268.5997 0000944 101.9124 258.2165 14.30815320 96704
IONOSFERA-M 1           
1 61735U 24199A   26194.28466826  .00000023  00000+0  30042-4 0  9998
2 61735  98.7138  67.1772 0002187  75.4065 284.7356 14.22758845131416
